STARLINK-4385           
1 53198U 22084K   26068.70515129  .00000241  00000+0  23269-4 0  9996
2 53198  97.6020 130.2285 0003038  72.6956 287.4601 15.01260008199978
HAWK-9C                 
1 59448U 24066G   26067.56477702  .00003036  00000+0  26713-3 0  9990
2 59448  45.5963  76.3952 0003436 229.7565 130.3016 14.98771048104736
